{
  "type": "FeatureCollection",
  "features": [
    {
      "type": "Feature",
      "properties": {
        "norad_id": 44794,
        "name": "BEIDOU-3 M21 (C43)",
        "group": "beidou",
        "lat": -49.04136409284789,
        "lon": -177.6002406588856,
        "alt_km": 21540.49414626978,
        "timestamp": "2025-12-27T05:29:39.468642+00:00",
        "meta_object_name": "BEIDOU-3 M21 (C43)",
        "meta_object_id": "2019-078B",
        "meta_epoch": "2025-12-25T05:55:32.884896",
        "meta_mean_motion": 1.86227898,
        "meta_eccentricity": 0.0004304,
        "meta_inclination": 54.0703,
        "meta_ra_of_asc_node": 305.9129,
        "meta_arg_of_pericenter": 12.6939,
        "meta_mean_anomaly": 347.3266,
        "meta_ephemeris_type": 0,
        "meta_classification_type": "U",
        "meta_norad_cat_id": 44794,
        "meta_element_set_no": 999,
        "meta_rev_at_epoch": 4141,
        "meta_bstar": 0,
        "meta_mean_motion_dot": -5.3e-07,
        "meta_mean_motion_ddot": 0,
        "tle_line1": "1 44794U 19078B   25359.24690839 -.00000053  00000+0  00000+0 0  9995",
        "tle_line2": "2 44794  54.0703 305.9129 0004304  12.6939 347.3266  1.86227898 41411"
      },
      "geometry": {
        "type": "Point",
        "coordinates": [
          -177.6002406588856,
          -49.04136409284789
        ]
      }
    },
    {
      "type": "Feature",
      "properties": {
        "norad_id": 44864,
        "name": "BEIDOU-3 M19 (C41)",
        "group": "beidou",
        "lat": 56.06290570822957,
        "lon": 149.11811673464558,
        "alt_km": 21569.82445815549,
        "timestamp": "2025-12-27T05:29:39.468653+00:00",
        "meta_object_name": "BEIDOU-3 M19 (C41)",
        "meta_object_id": "2019-090A",
        "meta_epoch": "2025-12-26T13:40:26.964192",
        "meta_mean_motion": 1.86231444,
        "meta_eccentricity": 0.001848,
        "meta_inclination": 56.4042,
        "meta_ra_of_asc_node": 68.5033,
        "meta_arg_of_pericenter": 285.3121,
        "meta_mean_anomaly": 77.4787,
        "meta_ephemeris_type": 0,
        "meta_classification_type": "U",
        "meta_norad_cat_id": 44864,
        "meta_element_set_no": 999,
        "meta_rev_at_epoch": 4102,
        "meta_bstar": 0,
        "meta_mean_motion_dot": -3.2e-07,
        "meta_mean_motion_ddot": 0,
        "tle_line1": "1 44864U 19090A   25360.56975653 -.00000032  00000+0  00000+0 0  9991",
        "tle_line2": "2 44864  56.4042  68.5033 0018480 285.3121  77.4787  1.86231444 41027"
      },
      "geometry": {
        "type": "Point",
        "coordinates": [
          149.11811673464558,
          56.06290570822957
        ]
      }
    },
    {
      "type": "Feature",
      "properties": {
        "norad_id": 44865,
        "name": "BEIDOU-3 M20 (C42)",
        "group": "beidou",
        "lat": 4.830923534755103,
        "lon": -114.68545395489112,
        "alt_km": 21551.48713711526,
        "timestamp": "2025-12-27T05:29:39.468664+00:00",
        "meta_object_name": "BEIDOU-3 M20 (C42)",
        "meta_object_id": "2019-090B",
        "meta_epoch": "2025-12-26T13:03:31.682016",
        "meta_mean_motion": 1.86231463,
        "meta_eccentricity": 0.0015612,
        "meta_inclination": 56.4057,
        "meta_ra_of_asc_node": 68.5385,
        "meta_arg_of_pericenter": 297.4355,
        "meta_mean_anomaly": 137.7791,
        "meta_ephemeris_type": 0,
        "meta_classification_type": "U",
        "meta_norad_cat_id": 44865,
        "meta_element_set_no": 999,
        "meta_rev_at_epoch": 4100,
        "meta_bstar": 0,
        "meta_mean_motion_dot": -3.2e-07,
        "meta_mean_motion_ddot": 0,
        "tle_line1": "1 44865U 19090B   25360.54411669 -.00000032  00000+0  00000+0 0  9992",
        "tle_line2": "2 44865  56.4057  68.5385 0015612 297.4355 137.7791  1.86231463 41005"
      },
      "geometry": {
        "type": "Point",
        "coordinates": [
          -114.68545395489112,
          4.830923534755103
        ]
      }
    },
    {
      "type": "Feature",
      "properties": {
        "norad_id": 45344,
        "name": "BEIDOU-3 G2 (C60)",
        "group": "beidou",
        "lat": -1.4352234442794636,
        "lon": -101.61893462637192,
        "alt_km": 35777.7870734086,
        "timestamp": "2025-12-27T05:29:39.468676+00:00",
        "meta_object_name": "BEIDOU-3 G2 (C60)",
        "meta_object_id": "2020-017A",
        "meta_epoch": "2025-12-26T21:58:29.674272",
        "meta_mean_motion": 1.00271825,
        "meta_eccentricity": 0.00021779,
        "meta_inclination": 2.5216,
        "meta_ra_of_asc_node": 44.1545,
        "meta_arg_of_pericenter": 237.2736,
        "meta_mean_anomaly": 223.8949,
        "meta_ephemeris_type": 0,
        "meta_classification_type": "U",
        "meta_norad_cat_id": 45344,
        "meta_element_set_no": 999,
        "meta_rev_at_epoch": 2153,
        "meta_bstar": 0,
        "meta_mean_motion_dot": -1.19e-06,
        "meta_mean_motion_ddot": 0,
        "tle_line1": "1 45344U 20017A   25360.91562123 -.00000119  00000+0  00000+0 0  9995",
        "tle_line2": "2 45344   2.5216  44.1545 0002177 237.2736 223.8949  1.00271825 21532"
      },
      "geometry": {
        "type": "Point",
        "coordinates": [
          -101.61893462637192,
          -1.4352234442794636
        ]
      }
    },
    {
      "type": "Feature",
      "properties": {
        "norad_id": 45807,
        "name": "BEIDOU-3 G3 (C61)",
        "group": "beidou",
        "lat": -1.3746023541478722,
        "lon": -71.22818125903467,
        "alt_km": 35786.00662150655,
        "timestamp": "2025-12-27T05:29:39.468687+00:00",
        "meta_object_name": "BEIDOU-3 G3 (C61)",
        "meta_object_id": "2020-040A",
        "meta_epoch": "2025-12-26T22:07:13.837152",
        "meta_mean_motion": 1.00266424,
        "meta_eccentricity": 0.00065872,
        "meta_inclination": 2.0233,
        "meta_ra_of_asc_node": 66.7,
        "meta_arg_of_pericenter": 308.2917,
        "meta_mean_anomaly": 162.9749,
        "meta_ephemeris_type": 0,
        "meta_classification_type": "U",
        "meta_norad_cat_id": 45807,
        "meta_element_set_no": 999,
        "meta_rev_at_epoch": 2034,
        "meta_bstar": 0,
        "meta_mean_motion_dot": -3.32e-06,
        "meta_mean_motion_ddot": 0,
        "tle_line1": "1 45807U 20040A   25360.92168793 -.00000332  00000+0  00000+0 0  9998",
        "tle_line2": "2 45807   2.0233  66.7000 0006587 308.2917 162.9749  1.00266424 20343"
      },
      "geometry": {
        "type": "Point",
        "coordinates": [
          -71.22818125903467,
          -1.3746023541478722
        ]
      }
    },
    {
      "type": "Feature",
      "properties": {
        "norad_id": 56564,
        "name": "BEIDOU-3 G4 (C62)",
        "group": "beidou",
        "lat": 0.44456541677602424,
        "lon": -21.579265688038774,
        "alt_km": 35796.46597411465,
        "timestamp": "2025-12-27T05:29:39.468699+00:00",
        "meta_object_name": "BEIDOU-3 G4 (C62)",
        "meta_object_id": "2023-066A",
        "meta_epoch": "2025-12-26T22:21:21.485952",
        "meta_mean_motion": 1.00270564,
        "meta_eccentricity": 0.00024962,
        "meta_inclination": 0.7854,
        "meta_ra_of_asc_node": 303.1583,
        "meta_arg_of_pericenter": 231.0428,
        "meta_mean_anomaly": 56.8567,
        "meta_ephemeris_type": 0,
        "meta_classification_type": "U",
        "meta_norad_cat_id": 56564,
        "meta_element_set_no": 999,
        "meta_rev_at_epoch": 966,
        "meta_bstar": 0,
        "meta_mean_motion_dot": -8.9e-07,
        "meta_mean_motion_ddot": 0,
        "tle_line1": "1 56564U 23066A   25360.93149868 -.00000089  00000+0  00000+0 0  9993",
        "tle_line2": "2 56564   0.7854 303.1583 0002496 231.0428  56.8567  1.00270564  9669"
      },
      "geometry": {
        "type": "Point",
        "coordinates": [
          -21.579265688038774,
          0.44456541677602424
        ]
      }
    },
    {
      "type": "Feature",
      "properties": {
        "norad_id": 58654,
        "name": "BEIDOU-3 M28 (C50)",
        "group": "beidou",
        "lat": -13.496746318120708,
        "lon": -102.41870489579554,
        "alt_km": 21528.756760802527,
        "timestamp": "2025-12-27T05:29:39.468710+00:00",
        "meta_object_name": "BEIDOU-3 M28 (C50)",
        "meta_object_id": "2023-207A",
        "meta_epoch": "2025-12-26T09:34:30.666720",
        "meta_mean_motion": 1.86229622,
        "meta_eccentricity": 0.0002968,
        "meta_inclination": 55.596,
        "meta_ra_of_asc_node": 68.1388,
        "meta_arg_of_pericenter": 276.5456,
        "meta_mean_anomaly": 83.472,
        "meta_ephemeris_type": 0,
        "meta_classification_type": "U",
        "meta_norad_cat_id": 58654,
        "meta_element_set_no": 999,
        "meta_rev_at_epoch": 1362,
        "meta_bstar": 0,
        "meta_mean_motion_dot": -3.3e-07,
        "meta_mean_motion_ddot": 0,
        "tle_line1": "1 58654U 23207A   25360.39896605 -.00000033  00000+0  00000+0 0  9999",
        "tle_line2": "2 58654  55.5960  68.1388 0002968 276.5456  83.4720  1.86229622 13628"
      },
      "geometry": {
        "type": "Point",
        "coordinates": [
          -102.41870489579554,
          -13.496746318120708
        ]
      }
    }
  ]
}